NORAD_CAT_ID,OBJECT_NAME,OBJECT_TYPE,EPOCH,MEAN_MOTION,ECCENTRICITY,INCLINATION,RA_OF_ASC_NODE,ARG_OF_PERICENTER,MEAN_ANOMALY,BSTAR,MEAN_MOTION_DOT,MEAN_MOTION_DDOT,TLE_LINE0,TLE_LINE1,TLE_LINE2,SEMIMAJOR_AXIS,PERIOD,APOGEE,PERIGEE,DECAYED
51993.0,STARLINK-3648,PAYLOAD,2023-01-06 11:38:19,15.08838385,0.0002712,53.2135,198.5115,41.3432,318.7765,-0.00013395,-2.42e-05,0.0,0 STARLINK-3648,1 51993U 22025AP  23006.48494314 -.00002420  00000-0 -13395-3 0  9990,2 51993  53.2135 198.5115 0002712  41.3432 318.7765 15.08838385 47329,6917.885,95.438,541.626,537.874,0.0
51993.0,STARLINK-3648,PAYLOAD,2023-01-06 21:10:38,15.0883419,0.0002623,53.2156,196.7265,41.5007,318.6184,-7.1721e-05,-1.4300000000000004e-05,0.0,0 STARLINK-3648,1 51993U 22025AP  23006.88239253 -.00001430  00000-0 -71721-4 0  9991,2 51993  53.2156 196.7265 0002623  41.5007 318.6184 15.08834190 46276,6917.898,95.438,541.578,537.9490000000002,0.0
51993.0,STARLINK-3648,PAYLOAD,2023-01-06 22:46:01,15.08834106,0.000267,53.2156,196.4291,40.9348,319.1844,-7.5288e-05,-1.486e-05,0.0,0 STARLINK-3648,1 51993U 22025AP  23006.94863272 -.00001486  00000-0 -75288-4 0  9995,2 51993  53.2156 196.4291 0002670  40.9348 319.1844 15.08834106 47395,6917.898,95.438,541.61,537.9159999999998,0.0
51993.0,STARLINK-3648,PAYLOAD,2023-01-07 05:07:34,15.08834603,0.0002696,53.2156,195.2396,41.9014,318.2184,-5.018e-05,-1.087e-05,0.0,0 STARLINK-3648,1 51993U 22025AP  23007.21359274 -.00001087  00000-0 -50180-4 0  9999,2 51993  53.2156 195.2396 0002696  41.9014 318.2184 15.08834603 46328,6917.897,95.438,541.627,537.8969999999998,0.0
51993.0,STARLINK-3648,PAYLOAD,2023-01-07 19:26:02,15.08853208,0.000274,53.2153,192.5633,40.113,320.0064,-0.00022907,-3.934e-05,0.0,0 STARLINK-3648,1 51993U 22025AP  23007.80974579 -.00003934  00000-0 -22907-3 0  9993,2 51993  53.2153 192.5633 0002740  40.1130 320.0064 15.08853208 47522,6917.84,95.437,541.601,537.81,0.0
51993.0,STARLINK-3648,PAYLOAD,2023-01-07 21:01:25,15.08834243,0.0002688,53.2153,192.2659,41.7031,318.4166,4.2036e-05,3.8e-06,0.0,0 STARLINK-3648,1 51993U 22025AP  23007.87599090  .00000380  00000-0  42036-4 0  9997,2 51993  53.2153 192.2659 0002688  41.7031 318.4166 15.08834243 46425,6917.898,95.438,541.623,537.903,0.0
51993.0,STARLINK-3648,PAYLOAD,2023-01-07 22:36:48,15.0883425,0.0002693,53.2153,191.9686,41.7948,318.3249,4.1602e-05,3.74e-06,0.0,0 STARLINK-3648,1 51993U 22025AP  23007.94223121  .00000374  00000-0  41602-4 0  9995,2 51993  53.2153 191.9686 0002693  41.7948 318.3249 15.08834250 47547,6917.898,95.438,541.626,537.9,0.0
51993.0,STARLINK-3648,PAYLOAD,2023-01-08 12:55:16,15.08833937,0.0002669,53.2156,189.292,42.0845,318.0352,0.00014445,2.011e-05,0.0,0 STARLINK-3648,1 51993U 22025AP  23008.53839023  .00002011  00000-0  14445-3 0  9999,2 51993  53.2156 189.2920 0002669  42.0845 318.0352 15.08833937 46524,6917.899,95.438,541.61,537.918,0.0
51993.0,STARLINK-3648,PAYLOAD,2023-01-08 20:52:12,15.08839927,0.0002692,53.2157,187.8051,42.7468,317.3733,0.0001612,2.278e-05,0.0,0 STARLINK-3648,1 51993U 22025AP  23008.86958717  .00002278  00000-0  16120-3 0  9994,2 51993  53.2157 187.8051 0002692  42.7468 317.3733 15.08839927 46573,6917.880999999999,95.438,541.6080000000002,537.883,0.0
51993.0,STARLINK-3648,PAYLOAD,2023-01-09 11:10:40,15.08843628,0.0002716,53.2157,185.1287,43.9436,316.1771,0.00013222,1.817e-05,0.0,0 STARLINK-3648,1 51993U 22025AP  23009.46574553  .00001817  00000-0  13222-3 0  9991,2 51993  53.2157 185.1287 0002716  43.9436 316.1771 15.08843628 46662,6917.8690000000015,95.437,541.613,537.855,0.0
51993.0,STARLINK-3648,PAYLOAD,2023-01-09 20:42:59,15.08840183,0.0002762,53.216,183.3444,43.6453,316.4757,7.558e-05,9.15e-06,0.0,0 STARLINK-3648,1 51993U 22025AP  23009.86318940  .00000915  00000-0  75580-4 0  9995,2 51993  53.2160 183.3444 0002762  43.6453 316.4757 15.08840183 46725,6917.88,95.438,541.656,537.8340000000002,0.0
51993.0,STARLINK-3648,PAYLOAD,2023-01-10 04:39:55,15.08843864,0.0002755,53.2163,181.8577,44.4896,315.6317,6.389e-05,7.29e-06,0.0,0 STARLINK-3648,1 51993U 22025AP  23010.19438677  .00000729  00000-0  63890-4 0  9997,2 51993  53.2163 181.8577 0002755  44.4896 315.6317 15.08843864 47880,6917.8690000000015,95.437,541.639,537.828,0.0
51993.0,STARLINK-3648,PAYLOAD,2023-01-10 20:33:46,15.08843411,0.00026,53.2158,178.8835,45.1038,315.0165,-1.9004e-05,-5.91e-06,0.0,0 STARLINK-3648,1 51993U 22025AP  23010.85678770 -.00000591  00000-0 -19004-4 0  9997,2 51993  53.2158 178.8835 0002600  45.1038 315.0165 15.08843411 46873,6917.87,95.437,541.534,537.936,0.0
51993.0,STARLINK-3648,PAYLOAD,2023-01-11 04:30:41,15.08846022,0.000252,53.2163,177.3958,46.1132,314.0068,2.8784e-05,1.7e-06,0.0,0 STARLINK-3648,1 51993U 22025AP  23011.18798309  .00000170  00000-0  28784-4 0  9991,2 51993  53.2163 177.3958 0002520  46.1132 314.0068 15.08846022 46924,6917.861999999999,95.437,541.47,537.984,0.0
51993.0,STARLINK-3648,PAYLOAD,2023-01-11 17:13:46,15.08848517,0.0002557,53.2158,175.0169,46.8605,313.2601,7.7128e-05,9.4e-06,0.0,0 STARLINK-3648,1 51993U 22025AP  23011.71789754  .00000940  00000-0  77128-4 0  9995,2 51993  53.2158 175.0169 0002557  46.8605 313.2601 15.08848517 48117,6917.854,95.437,541.488,537.95,0.0
51993.0,STARLINK-3648,PAYLOAD,2023-01-11 18:49:09,15.08846341,0.0002431,53.2159,174.7185,47.6283,312.4914,4.8333e-05,4.81e-06,0.0,0 STARLINK-3648,1 51993U 22025AP  23011.78413960  .00000481  00000-0  48333-4 0  9991,2 51993  53.2159 174.7185 0002431  47.6283 312.4914 15.08846341 47013,6917.861,95.437,541.408,538.044,0.0
51993.0,STARLINK-3648,PAYLOAD,2023-01-12 17:04:34,15.08837554,0.0002952,53.212,170.5572,56.2257,303.9016,3.7783e-05,3.13e-06,0.0,0 STARLINK-3648,1 51993U 22025AP  23012.71150583  .00000313  00000-0  37783-4 0  9995,2 51993  53.2120 170.5572 0002952  56.2257 303.9016 15.08837554 48262,6917.888000000001,95.438,541.795,537.711,0.0
51993.0,STARLINK-3648,PAYLOAD,2023-01-12 18:39:57,15.08831781,0.0002537,53.2155,170.2608,45.0021,315.1176,-0.00012293,-2.244e-05,0.0,0 STARLINK-3648,1 51993U 22025AP  23012.77775419 -.00002244  00000-0 -12293-3 0  9997,2 51993  53.2155 170.2608 0002537  45.0021 315.1176 15.08831781 48270,6917.906,95.438,541.526,538.015,0.0
51993.0,STARLINK-3648,PAYLOAD,2023-01-13 18:30:45,15.08836031,0.0002554,53.2158,165.7998,44.8101,315.3097,-8.858299999999999e-05,-1.698e-05,0.0,0 STARLINK-3648,1 51993U 22025AP  23013.77135639 -.00001698  00000-0 -88583-4 0  9990,2 51993  53.2158 165.7998 0002554  44.8101 315.3097 15.08836031 47310,6917.893,95.438,541.524,537.991,0.0
51993.0,STARLINK-3648,PAYLOAD,2023-01-14 02:27:40,15.08834787,0.0002609,53.216,164.313,46.3706,313.7502,-3.2564e-05,-8.07e-06,0.0,0 STARLINK-3648,1 51993U 22025AP  23014.10255682 -.00000807  00000-0 -32564-4 0  9998,2 51993  53.2160 164.3130 0002609  46.3706 313.7502 15.08834787 48472,6917.896,95.438,541.566,537.956,0.0
51993.0,STARLINK-3648,PAYLOAD,2023-01-15 02:18:28,15.08824893,0.0002783,53.2145,159.85299999999998,53.383,306.7418,8.383e-05,1.045e-05,0.0,0 STARLINK-3648,1 51993U 22025AP  23015.09616595  .00001045  00000-0  83830-4 0  9996,2 51993  53.2145 159.8530 0002783  53.3830 306.7418 15.08824893 48629,6917.927,95.439,541.717,537.866,0.0
51993.0,STARLINK-3648,PAYLOAD,2023-01-15 13:26:10,15.08828711,0.0002423999999999,53.216,157.7716,57.7917,302.331,5.3676000000000006e-05,5.66e-06,0.0,0 STARLINK-3648,1 51993U 22025AP  23015.55984856  .00000566  00000-0  53676-4 0  9997,2 51993  53.2160 157.7716 0002424  57.7917 302.3310 15.08828711 47585,6917.915,95.438,541.457,538.1030000000001,0.0
51993.0,STARLINK-3648,PAYLOAD,2023-01-15 18:12:19,15.08840263,0.0002487,53.2158,156.879,54.0553,306.067,0.00015833,2.232e-05,0.0,0 STARLINK-3648,1 51993U 22025AP  23015.75855987  .00002232  00000-0  15833-3 0  9995,2 51993  53.2158 156.8790 0002487  54.0553 306.0670 15.08840263 48722,6917.88,95.438,541.465,538.024,0.0
51993.0,STARLINK-3648,PAYLOAD,2023-01-16 10:06:11,15.08838615,0.0002478,53.214,153.9055,62.1618,297.9625,3.88e-05,3.29e-06,0.0,0 STARLINK-3648,1 51993U 22025AP  23016.42096611  .00000329  00000-0  38800-4 0  9996,2 51993  53.2140 153.9055 0002478  62.1618 297.9625 15.08838615 48824,6917.885,95.438,541.464,538.035,0.0
51993.0,STARLINK-3648,PAYLOAD,2023-01-16 13:16:57,15.08849889,0.0002798,53.2181,153.3147,69.7929,290.3363,-3.2313e-05,-8.03e-06,0.0,0 STARLINK-3648,1 51993U 22025AP  23016.55344197 -.00000803  00000-0 -32313-4 0  9997,2 51993  53.2181 153.3147 0002798  69.7929 290.3363 15.08849889 47738,6917.85,95.437,541.651,537.78,0.0
51993.0,STARLINK-3648,PAYLOAD,2023-01-16 16:27:43,15.08851203,0.0002472,53.2174,152.7147,53.5938,306.5282,8.0147e-05,9.88e-06,0.0,0 STARLINK-3648,1 51993U 22025AP  23016.68591810  .00000988  00000-0  80147-4 0  9997,2 51993  53.2174 152.7147 0002472  53.5938 306.5282 15.08851203 48861,6917.846,95.437,541.4209999999999,538.001,0.0
51993.0,STARLINK-3648,PAYLOAD,2023-01-17 02:00:02,15.08836297,0.0002334,53.216,150.9306,60.0265,300.0958,9.3383e-05,1.198e-05,0.0,0 STARLINK-3648,1 51993U 22025AP  23017.08336630  .00001198  00000-0  93383-4 0  9999,2 51993  53.2160 150.9306 0002334  60.0265 300.0958 15.08836297 48928,6917.892,95.438,541.371,538.1419999999999,0.0
51993.0,STARLINK-3648,PAYLOAD,2023-01-17 14:43:08,15.0882794,0.0002296999999999,53.2178,148.5534,62.7879,297.3347,1.5303e-05,-4.5e-07,0.0,0 STARLINK-3648,1 51993U 22025AP  23017.61329431 -.00000045  00000-0  15303-4 0  9996,2 51993  53.2178 148.5534 0002297  62.7879 297.3347 15.08827940 47891,6917.917,95.438,541.371,538.193,0.0
51993.0,STARLINK-3648,PAYLOAD,2023-01-17 16:18:31,15.08833723,0.0002302,53.2171,148.2552,62.2606,297.862,-1.7577e-05,-5.68e-06,0.0,0 STARLINK-3648,1 51993U 22025AP  23017.67953516 -.00000568  00000-0 -17577-4 0  9995,2 51993  53.2171 148.2552 0002302  62.2606 297.8620 15.08833723 49012,6917.9,95.438,541.357,538.172,0.0
